{"format":"tle-catalog-v1","generatedAt":"2026-07-01T14:19:31.438Z","count":19018,"entries":[{"name":"ALOS (DAICHI)","line1":"1 28931U 06002A   26182.11193558  .00001106  00000+0  19240-3 0  9999","line2":"2 28931  98.1330 137.6365 0000935  61.4246 298.7054 14.70078126 90145"},{"name":"AQUA","line1":"1 27424U 02022A   26182.15139328  .00000795  00000+0  16768-3 0  9997","line2":"2 27424  98.4284 151.7138 0000697  76.6822 345.6832 14.62179055285315"},{"name":"ARIANE 5 R/B","line1":"1 28499U 04049H   26182.07366530  .00000613  00000+0  73954-4 0  9999","line2":"2 28499  98.2730 354.8637 0083466 344.4972  15.3687 14.85465534162621"},{"name":"CZ-2C R/B","line1":"1 28222U 04012C   26182.15396117  .00153431  00000+0  74711-3 0  9994","line2":"2 28222  97.7074 259.4707 0010982 233.5190 126.5067 15.81885000222109"},{"name":"CZ-2C R/B","line1":"1 28480U 04046B   26181.72411419  .00000097  00000+0  50986-4 0  9990","line2":"2 28480  98.1934  89.6584 0139260 180.0781 180.0403 14.27029546124625"},{"name":"CZ-2C R/B","line1":"1 31114U 07010B   26182.14960206  .00000094  00000+0  62451-4 0  9999","line2":"2 31114  98.4112 289.8185 0058225 325.2948  34.4437 14.20279215995824"},{"name":"CZ-2D R/B","line1":"1 28738U 05024B   26182.04764499  .00080877  00000+0  63948-3 0  9993","line2":"2 28738  97.3473 202.1820 0000562 345.7880  14.3367 15.71116499157513"},{"name":"CZ-4B R/B","line1":"1 25732U 99025C   26182.10529019  .00000060  00000+0  49783-4 0  9990","line2":"2 25732  98.6477 223.5932 0037440  20.3358  34.7729 14.18285774404240"},{"name":"CZ-4B R/B","line1":"1 27432U 02024C   26182.10519145  .00000053  00000+0  49811-4 0  9995","line2":"2 27432  98.8693 234.8346 0051066  61.5217   6.0965 14.14566553245279"},{"name":"CZ-4B R/B","line1":"1 28059U 03049C   26181.98397009  .00000292  00000+0  78528-4 0  9999","line2":"2 28059  98.6900 181.3799 0046989 245.4136 114.2159 14.55108676203075"},{"name":"CZ-4B R/B","line1":"1 28415U 04035C   26182.12199683  .00009356  00000+0  31270-3 0  9998","line2":"2 28415  97.3355 215.0395 0028866 285.7630  74.0428 15.30819829197255"},{"name":"CZ-4B R/B","line1":"1 29507U 06046C   26182.16312917  .00004669  00000+0  23097-3 0  9996","line2":"2 29507  97.5439 226.7271 0031330 231.7863 128.0549 15.17885589 77256"},{"name":"DELTA 2 R/B","line1":"1 25876U 99041E   26181.48232798  .00001199  00000+0  23076-3 0  9992","line2":"2 25876  51.7621 210.6838 0501057 321.3100  35.2912 14.12040959378968"},{"name":"ENVISAT","line1":"1 27386U 02009A   26182.14538911  .00000085  00000+0  41482-4 0  9993","line2":"2 27386  98.3840 133.1529 0001385  85.6626 285.1612 14.39067951275491"},{"name":"H-2A R/B","line1":"1 27601U 02056E   26182.16827205  .00000223  00000+0  92618-4 0  9995","line2":"2 27601  98.3319 138.3336 0069964 182.5411 188.7444 14.33828098230371"},{"name":"H-2A R/B","line1":"1 28932U 06002B   26182.02771481  .00009479  00000+0  45171-3 0  9990","line2":"2 28932  98.2578 339.1109 0049982 214.3327 145.4671 15.18250041111621"},{"name":"HELIOS 1B","line1":"1 25977U 99064A   26182.16542663  .00001578  00000+0  17815-3 0  9995","line2":"2 25977  98.1602  87.7092 0002393  71.6368 288.5107 14.88043909702139"},{"name":"IDEFIX & ARIANE 42P R/B","line1":"1 27422U 02021B   26181.83331143  .00000216  00000+0  98458-4 0  9992","line2":"2 27422  98.5943 119.1687 0011021 209.8360 150.2196 14.31088196260208"},{"name":"ISS (ZARYA)","line1":"1 25544U 98067A   26182.12120860  .00006925  00000+0  13146-3 0  9998","line2":"2 25544  51.6311 231.1150 0004254 253.5517 106.5005 15.49499881573915"},{"name":"MIDORI II (ADEOS-II)","line1":"1 27597U 02056A   26182.13834845  .00000245  00000+0  11414-3 0  9992","line2":"2 27597  98.7885 141.5172 0001976  57.9672 302.1701 14.29356870226501"},{"name":"OKEAN-O","line1":"1 25860U 99039A   26182.13530146  .00000650  00000+0  91738-4 0  9995","line2":"2 25860  97.9309 240.7728 0001209  70.0994 290.0349 14.80483845451171"},{"name":"ORBVIEW 2 (SEASTAR)","line1":"1 24883U 97037A   26182.16888330  .00000276  00000+0  11201-3 0  9999","line2":"2 24883  98.8699 349.5761 0003338  88.5637 271.5930 14.35560848524759"},{"name":"RESURS-DK 1","line1":"1 29228U 06021A   26182.04901117  .00002356  00000+0  13817-3 0  9992","line2":"2 29228  69.9341 303.6702 0006702 285.3070  74.7355 15.13273733104672"},{"name":"SL-16 R/B","line1":"1 24298U 96051B   26182.05362141  .00000147  00000+0  10638-3 0  9999","line2":"2 24298  70.7654 295.3030 0016675 316.9627  43.0187 14.12450881537650"},{"name":"SL-16 R/B","line1":"1 25400U 98043G   26182.11475411  .00000041  00000+0  36151-4 0  9992","line2":"2 25400  98.8371 136.3942 0010719  49.9241 310.2876 14.26070808455157"},{"name":"SL-16 R/B","line1":"1 25407U 98045B   26182.07987264  .00000229  00000+0  13955-3 0  9994","line2":"2 25407  71.0127 303.1120 0008811 224.1260 135.9161 14.16206231443152"},{"name":"SL-16 R/B","line1":"1 25861U 99039B   26182.21164260  .00000585  00000+0  80728-4 0  9999","line2":"2 25861  97.9832 241.0345 0013481 246.8289 113.1504 14.81859163453673"},{"name":"SL-16 R/B","line1":"1 26070U 00006B   26182.12466920  .00000098  00000+0  74030-4 0  9994","line2":"2 26070  71.0012 219.3196 0016444   0.8372 359.2775 14.15840653364613"},{"name":"SL-16 R/B","line1":"1 28353U 04021B   26181.87943183  .00000261  00000+0  16064-3 0  9997","line2":"2 28353  71.0011 354.9523 0006697 237.7937 122.2537 14.14609521138849"},{"name":"TERRA","line1":"1 25994U 99068A   26182.18856784  .00000469  00000+0  10436-3 0  9992","line2":"2 25994  97.9449 231.1793 0002647 151.6481 244.4540 14.61114460411652"},{"name":"TITAN 4B R/B","line1":"1 26474U 00047B   26182.16695771  .00003097  00000+0  19247-3 0  9999","line2":"2 26474  67.9890  81.2223 0045856 273.0169  86.5734 15.10273812410040"}]}