OBJECT_NAME,OBJECT_ID,EPOCH,MEAN_MOTION,ECCENTRICITY,INCLINATION,RA_OF_ASC_NODE,ARG_OF_PERICENTER,MEAN_ANOMALY,EPHEMERIS_TYPE,CLASSIFICATION_TYPE,NORAD_CAT_ID,ELEMENT_SET_NO,REV_AT_EPOCH,BSTAR,MEAN_MOTION_DOT,MEAN_MOTION_DDOT
SL-16 R/B,1996-051B,2026-07-01T01:17:12.889824,14.12450881,.0016675,70.7654,295.3030,316.9627,43.0187,0,U,24298,999,53765,.10638E-3,.147E-5,0
ORBVIEW 2 (SEASTAR),1997-037A,2026-07-01T04:03:11.517120,14.35560848,.0003338,98.8699,349.5761,88.5637,271.5930,0,U,24883,999,52475,.11201E-3,.276E-5,0
SL-16 R/B,1998-043G,2026-07-01T02:45:14.755104,14.26070808,.0010719,98.8371,136.3942,49.9241,310.2876,0,U,25400,999,45515,.36151E-4,.41E-6,0
SL-16 R/B,1998-045B,2026-07-01T01:55:00.996096,14.16206231,.0008811,71.0127,303.1120,224.1260,135.9161,0,U,25407,999,44315,.13955E-3,.229E-5,0
ISS (ZARYA),1998-067A,2026-07-01T02:54:32.423040,15.49499881,.0004254,51.6311,231.1150,253.5517,106.5005,0,U,25544,999,57391,.13146E-3,.6925E-4,0
CZ-4B R/B,1999-025C,2026-07-01T02:31:37.072416,14.18285774,.003744,98.6477,223.5932,20.3358,34.7729,0,U,25732,999,40424,.49783E-4,.6E-6,0
OKEAN-O,1999-039A,2026-07-01T03:14:50.046144,14.80483845,.0001209,97.9309,240.7728,70.0994,290.0349,0,U,25860,999,45117,.91738E-4,.65E-5,0
SL-16 R/B,1999-039B,2026-07-01T05:04:45.920640,14.81859163,.0013481,97.9832,241.0345,246.8289,113.1504,0,U,25861,999,45367,.80728E-4,.585E-5,0
DELTA 2 R/B,1999-041E,2026-06-30T11:34:33.137472,14.12040959,.05010571,51.7621,210.6838,321.3100,35.2912,0,U,25876,999,37896,.23075768E-3,.1199E-4,0
HELIOS 1B,1999-064A,2026-07-01T03:58:12.860832,14.88043909,.0002393,98.1602,87.7092,71.6368,288.5107,0,U,25977,999,70213,.17815E-3,.1578E-4,0
TERRA,1999-068A,2026-07-01T04:31:32.261376,14.61114460,.0002647,97.9449,231.1793,151.6481,244.4540,0,U,25994,999,41165,.10436E-3,.469E-5,0
SL-16 R/B,2000-006B,2026-07-01T02:59:31.418880,14.15840653,.0016444,71.0012,219.3196,0.8372,359.2775,0,U,26070,999,36461,.7403E-4,.98E-6,0
TITAN 4B R/B,2000-047B,2026-07-01T04:00:25.146144,15.10273812,.0045856,67.9890,81.2223,273.0169,86.5734,0,U,26474,999,41004,.19247E-3,.3097E-4,0
ENVISAT,2002-009A,2026-07-01T03:29:21.619104,14.39067951,.0001385,98.3840,133.1529,85.6626,285.1612,0,U,27386,999,27549,.41482E-4,.85E-6,0
IDEFIX & ARIANE 42P R/B,2002-021B,2026-06-30T19:59:58.107552,14.31088196,.00110211,98.5943,119.1687,209.8360,150.2196,0,U,27422,999,26020,.98458158E-4,.216E-5,0
AQUA,2002-022A,2026-07-01T03:38:00.379392,14.62179055,.0000697,98.4284,151.7138,76.6822,345.6832,0,U,27424,999,28531,.16768E-3,.795E-5,0
CZ-4B R/B,2002-024C,2026-07-01T02:31:28.541280,14.14566553,.0051066,98.8693,234.8346,61.5217,6.0965,0,U,27432,999,24527,.49811E-4,.53E-6,0
MIDORI II (ADEOS-II),2002-056A,2026-07-01T03:19:13.306080,14.29356870,.0001976,98.7885,141.5172,57.9672,302.1701,0,U,27597,999,22650,.11414E-3,.245E-5,0
H-2A R/B,2002-056E,2026-07-01T04:02:18.705120,14.33828098,.0069964,98.3319,138.3336,182.5411,188.7444,0,U,27601,999,23037,.92618E-4,.223E-5,0
CZ-4B R/B,2003-049C,2026-06-30T23:36:55.015776,14.55108676,.0046989,98.6900,181.3799,245.4136,114.2159,0,U,28059,999,20307,.78528E-4,.292E-5,0
CZ-2C R/B,2004-012C,2026-07-01T03:41:42.245088,15.81885000,.0010982,97.7074,259.4707,233.5190,126.5067,0,U,28222,999,22210,.74711E-3,.153431E-2,0
SL-16 R/B,2004-021B,2026-06-30T21:06:22.910112,14.14609521,.0006697,71.0011,354.9523,237.7937,122.2537,0,U,28353,999,13884,.16064E-3,.261E-5,0
CZ-4B R/B,2004-035C,2026-07-01T02:55:40.526112,15.30819829,.0028866,97.3355,215.0395,285.7630,74.0428,0,U,28415,999,19725,.3127E-3,.9356E-4,0
CZ-2C R/B,2004-046B,2026-06-30T17:22:43.466016,14.27029546,.01392604,98.1934,89.6584,180.0781,180.0403,0,U,28480,999,12462,.50985592E-4,.97E-6,0
ARIANE 5 R/B,2004-049H,2026-07-01T01:46:04.681920,14.85465534,.0083466,98.2730,354.8637,344.4972,15.3687,0,U,28499,999,16262,.73954E-4,.613E-5,0
CZ-2D R/B,2005-024B,2026-07-01T01:08:36.527136,15.71116499,.0000562,97.3473,202.1820,345.7880,14.3367,0,U,28738,999,15751,.63948E-3,.80877E-3,0
ALOS (DAICHI),2006-002A,2026-07-01T02:41:11.234112,14.70078126,.0000935,98.1330,137.6365,61.4246,298.7054,0,U,28931,999,9014,.1924E-3,.1106E-4,0
H-2A R/B,2006-002B,2026-07-01T00:39:54.559584,15.18250041,.0049982,98.2578,339.1109,214.3327,145.4671,0,U,28932,999,11162,.45171E-3,.9479E-4,0
RESURS-DK 1,2006-021A,2026-07-01T01:10:34.565088,15.13273733,.0006702,69.9341,303.6702,285.3070,74.7355,0,U,29228,999,10467,.13817E-3,.2356E-4,0
CZ-4B R/B,2006-046C,2026-07-01T03:54:54.360288,15.17885589,.003133,97.5439,226.7271,231.7863,128.0549,0,U,29507,999,7725,.23097E-3,.4669E-4,0
CZ-2C R/B,2007-010B,2026-07-01T03:35:25.617984,14.20279215,.0058225,98.4112,289.8185,325.2948,34.4437,0,U,31114,999,99582,.62451E-4,.94E-6,0
